[{"OBJECT_NAME":"HBTSS-SV2","OBJECT_ID":"2024-028A","EPOCH":"2026-03-09T12:33:04.893984","MEAN_MOTION":13.70447074,"ECCENTRICITY":0.0019418,"INCLINATION":39.99,"RA_OF_ASC_NODE":141.7809,"ARG_OF_PERICENTER":26.2746,"MEAN_ANOMALY":333.8982,"EPHEMERIS_TYPE":0,"CLASSIFICATION_TYPE":"U","NORAD_CAT_ID":58955,"ELEMENT_SET_NO":999,"REV_AT_EPOCH":10339,"BSTAR":0.0002328,"MEAN_MOTION_DOT":1.3e-6,"MEAN_MOTION_DDOT":0},{"OBJECT_NAME":"THOR ABLESTAR DEB","OBJECT_ID":"1961-015DN","EPOCH":"2026-03-09T09:08:19.804992","MEAN_MOTION":13.69188872,"ECCENTRICITY":0.00806125,"INCLINATION":67.0292,"RA_OF_ASC_NODE":66.8289,"ARG_OF_PERICENTER":211.6475,"MEAN_ANOMALY":263.4665,"EPHEMERIS_TYPE":0,"CLASSIFICATION_TYPE":"U","NORAD_CAT_ID":336,"ELEMENT_SET_NO":999,"REV_AT_EPOCH":22553,"BSTAR":0.00018756513,"MEAN_MOTION_DOT":9.5e-7,"MEAN_MOTION_DDOT":0}]
